{"type": "FeatureCollection", "features": [ {"type": "Feature", "properties": {"norad_id": 60453, "name": "LEGION 4", "group": "resource", "lat": 20.00535999386006, "lon": -176.64057625802388, "alt_km": 521.8101973205939, "timestamp": "2025-12-15T22:44:28.581427+00:00", "meta": {"OBJECT_NAME": "LEGION 4", "OBJECT_ID": "2024-146B", "EPOCH": "2025-12-15T07:50:36.180960", "MEAN_MOTION": 15.15855356, "ECCENTRICITY": 0.00092554, "INCLINATION": 45.0399, "RA_OF_ASC_NODE": 28.0221, "ARG_OF_PERICENTER": 324.2986, "MEAN_ANOMALY": 35.7274, "EPHEMERIS_TYPE": 0, "CLASSIFICATION_TYPE": "U", "NORAD_CAT_ID": 60453, "ELEMENT_SET_NO": 999, "REV_AT_EPOCH": 7297, "BSTAR": 0.00022025264, "MEAN_MOTION_DOT": 4.025e-05, "MEAN_MOTION_DDOT": 0}, "tle": {"line1": "1 60453U 24146B   25349.32680765  .00004025  00000+0  22025-3 0  9999", "line2": "2 60453  45.0399  28.0221 0009255 324.2986  35.7274 15.15855356 72977"}}, "geometry": {"type": "Point", "coordinates": [-176.64057625802388, 20.00535999386006]}}, {"type": "Feature", "properties": {"norad_id": 60989, "name": "SENTINEL-2C", "group": "resource", "lat": -42.14679878316931, "lon": 70.22615237419434, "alt_km": 796.2215351284922, "timestamp": "2025-12-15T22:44:28.581438+00:00", "meta": {"OBJECT_NAME": "SENTINEL-2C", "OBJECT_ID": "2024-157A", "EPOCH": "2025-12-15T04:28:44.821632", "MEAN_MOTION": 14.30818452, "ECCENTRICITY": 0.00012316, "INCLINATION": 98.5681, "RA_OF_ASC_NODE": 61.6339, "ARG_OF_PERICENTER": 97.2024, "MEAN_ANOMALY": 262.9299, "EPHEMERIS_TYPE": 0, "CLASSIFICATION_TYPE": "U", "NORAD_CAT_ID": 60989, "ELEMENT_SET_NO": 999, "REV_AT_EPOCH": 6667, "BSTAR": 6.9370316e-05, "MEAN_MOTION_DOT": 1.38e-06, "MEAN_MOTION_DDOT": 0}, "tle": {"line1": "1 60989U 24157A   25349.18662988  .00000138  00000+0  69370-4 0  9992", "line2": "2 60989  98.5681  61.6339 0001231  97.2024 262.9299 14.30818452 66670"}}, "geometry": {"type": "Point", "coordinates": [70.22615237419434, -42.14679878316931]}}, {"type": "Feature", "properties": {"norad_id": 61735, "name": "IONOSFERA-M 1", "group": "resource", "lat": 48.81775021913753, "lon": 49.8983906544513, "alt_km": 811.9848342350742, "timestamp": "2025-12-15T22:44:28.581448+00:00", "meta": {"OBJECT_NAME": "IONOSFERA-M 1", "OBJECT_ID": "2024-199A", "EPOCH": "2025-12-15T08:37:40.265184", "MEAN_MOTION": 14.22714561, "ECCENTRICITY": 8.437e-05, "INCLINATION": 98.7403, "RA_OF_ASC_NODE": 219.1876, "ARG_OF_PERICENTER": 18.4789, "MEAN_ANOMALY": 341.6419, "EPHEMERIS_TYPE": 0, "CLASSIFICATION_TYPE": "U", "NORAD_CAT_ID": 61735, "ELEMENT_SET_NO": 999, "REV_AT_EPOCH": 10156, "BSTAR": 4.8422304e-05, "MEAN_MOTION_DOT": 6.4e-07, "MEAN_MOTION_DDOT": 0}, "tle": {"line1": "1 61735U 24199A   25349.35949381  .00000064  00000+0  48422-4 0  9995", "line2": "2 61735  98.7403 219.1876 0000843  18.4789 341.6419 14.22714561101565"}}, "geometry": {"type": "Point", "coordinates": [49.8983906544513, 48.81775021913753]}}, {"type": "Feature", "properties": {"norad_id": 61736, "name": "IONOSFERA-M 2", "group": "resource", "lat": -46.36799510840551, "lon": -131.0306108164293, "alt_km": 823.9964049852642, "timestamp": "2025-12-15T22:44:28.581458+00:00", "meta": {"OBJECT_NAME": "IONOSFERA-M 2", "OBJECT_ID": "2024-199B", "EPOCH": "2025-12-15T07:46:17.061312", "MEAN_MOTION": 14.2271678, "ECCENTRICITY": 0.00016996, "INCLINATION": 98.7401, "RA_OF_ASC_NODE": 219.0647, "ARG_OF_PERICENTER": 107.2993, "MEAN_ANOMALY": 252.8371, "EPHEMERIS_TYPE": 0, "CLASSIFICATION_TYPE": "U", "NORAD_CAT_ID": 61736, "ELEMENT_SET_NO": 999, "REV_AT_EPOCH": 10468, "BSTAR": 4.8661552e-05, "MEAN_MOTION_DOT": 6.5e-07, "MEAN_MOTION_DDOT": 0}, "tle": {"line1": "1 61736U 24199B   25349.32380858  .00000065  00000+0  48662-4 0  9998", "line2": "2 61736  98.7401 219.0647 0001699 107.2993 252.8371 14.22716780104684"}}, "geometry": {"type": "Point", "coordinates": [-131.0306108164293, -46.36799510840551]}}, {"type": "Feature", "properties": {"norad_id": 63772, "name": "BIOMASS", "group": "resource", "lat": -57.17849997897718, "lon": -172.38320085661357, "alt_km": 676.6620611365661, "timestamp": "2025-12-15T22:44:28.581468+00:00", "meta": {"OBJECT_NAME": "BIOMASS", "OBJECT_ID": "2025-090A", "EPOCH": "2025-12-15T06:38:30.270336", "MEAN_MOTION": 14.67532504, "ECCENTRICITY": 0.00011842, "INCLINATION": 98.0695, "RA_OF_ASC_NODE": 174.2493, "ARG_OF_PERICENTER": 82.6411, "MEAN_ANOMALY": 277.4928, "EPHEMERIS_TYPE": 0, "CLASSIFICATION_TYPE": "U", "NORAD_CAT_ID": 63772, "ELEMENT_SET_NO": 999, "REV_AT_EPOCH": 3371, "BSTAR": 0.00022306572, "MEAN_MOTION_DOT": 1.217e-05, "MEAN_MOTION_DDOT": 0}, "tle": {"line1": "1 63772U 25090A   25349.27673924  .00001217  00000+0  22307-3 0  9991", "line2": "2 63772  98.0695 174.2493 0001184  82.6411 277.4928 14.67532504 33710"}}, "geometry": {"type": "Point", "coordinates": [-172.38320085661357, -57.17849997897718]}}, {"type": "Feature", "properties": {"norad_id": 64694, "name": "GOSAT-GW (IBUKI GW)", "group": "resource", "lat": 27.812855765383055, "lon": 109.67990877395873, "alt_km": 667.4417102906145, "timestamp": "2025-12-15T22:44:28.581479+00:00", "meta": {"OBJECT_NAME": "GOSAT-GW (IBUKI GW)", "OBJECT_ID": "2025-141A", "EPOCH": "2025-12-15T07:19:29.681760", "MEAN_MOTION": 14.67558192, "ECCENTRICITY": 0.00016925, "INCLINATION": 98.0426, "RA_OF_ASC_NODE": 284.7717, "ARG_OF_PERICENTER": 76.3313, "MEAN_ANOMALY": 283.808, "EPHEMERIS_TYPE": 0, "CLASSIFICATION_TYPE": "U", "NORAD_CAT_ID": 64694, "ELEMENT_SET_NO": 999, "REV_AT_EPOCH": 2487, "BSTAR": 0.00018953527, "MEAN_MOTION_DOT": 1.028e-05, "MEAN_MOTION_DDOT": 0}, "tle": {"line1": "1 64694U 25141A   25349.30520465  .00001028  00000+0  18954-3 0  9990", "line2": "2 64694  98.0426 284.7717 0001692  76.3313 283.8080 14.67558192 24875"}}, "geometry": {"type": "Point", "coordinates": [109.67990877395873, 27.812855765383055]}}, {"type": "Feature", "properties": {"norad_id": 64876, "name": "IONOSFERA-M 3", "group": "resource", "lat": -17.414923008842127, "lon": -45.563379090006876, "alt_km": 824.8787531524931, "timestamp": "2025-12-15T22:44:28.581489+00:00", "meta": {"OBJECT_NAME": "IONOSFERA-M 3", "OBJECT_ID": "2025-155A", "EPOCH": "2025-12-15T09:18:31.969728", "MEAN_MOTION": 14.21441734, "ECCENTRICITY": 0.00021724, "INCLINATION": 98.5785, "RA_OF_ASC_NODE": 311.179, "ARG_OF_PERICENTER": 55.9364, "MEAN_ANOMALY": 304.2019, "EPHEMERIS_TYPE": 0, "CLASSIFICATION_TYPE": "U", "NORAD_CAT_ID": 64876, "ELEMENT_SET_NO": 999, "REV_AT_EPOCH": 2029, "BSTAR": 6.1766408e-05, "MEAN_MOTION_DOT": 9.2e-07, "MEAN_MOTION_DDOT": 0}, "tle": {"line1": "1 64876U 25155A   25349.38787002  .00000092  00000+0  61766-4 0  9997", "line2": "2 64876  98.5785 311.1790 0002172  55.9364 304.2019 14.21441734 20294"}}, "geometry": {"type": "Point", "coordinates": [-45.563379090006876, -17.414923008842127]}}, {"type": "Feature", "properties": {"norad_id": 64877, "name": "IONOSFERA-M 4", "group": "resource", "lat": 16.490996143911847, "lon": 134.20361847214105, "alt_km": 821.299684492099, "timestamp": "2025-12-15T22:44:28.581500+00:00", "meta": {"OBJECT_NAME": "IONOSFERA-M 4", "OBJECT_ID": "2025-155B", "EPOCH": "2025-12-15T08:27:39.728160", "MEAN_MOTION": 14.21442839, "ECCENTRICITY": 0.00015505, "INCLINATION": 98.5784, "RA_OF_ASC_NODE": 311.0643, "ARG_OF_PERICENTER": 60.8193, "MEAN_ANOMALY": 299.314, "EPHEMERIS_TYPE": 0, "CLASSIFICATION_TYPE": "U", "NORAD_CAT_ID": 64877, "ELEMENT_SET_NO": 999, "REV_AT_EPOCH": 2028, "BSTAR": 6.1657984e-05, "MEAN_MOTION_DOT": 9.2e-07, "MEAN_MOTION_DDOT": 0}, "tle": {"line1": "1 64877U 25155B   25349.35254315  .00000092  00000+0  61658-4 0  9991", "line2": "2 64877  98.5784 311.0643 0001550  60.8193 299.3140 14.21442839 20289"}}, "geometry": {"type": "Point", "coordinates": [134.20361847214105, 16.490996143911847]}}, {"type": "Feature", "properties": {"norad_id": 64899, "name": "MICROCARB", "group": "resource", "lat": -1.5933161653228802, "lon": -114.98271967636657, "alt_km": 649.3466408262948, "timestamp": "2025-12-15T22:44:28.581510+00:00", "meta": {"OBJECT_NAME": "MICROCARB", "OBJECT_ID": "2025-156A", "EPOCH": "2025-12-15T03:58:32.903040", "MEAN_MOTION": 14.72060751, "ECCENTRICITY": 0.00172742, "INCLINATION": 98.0024, "RA_OF_ASC_NODE": 64.4722, "ARG_OF_PERICENTER": 137.3856, "MEAN_ANOMALY": 222.8695, "EPHEMERIS_TYPE": 0, "CLASSIFICATION_TYPE": "U", "NORAD_CAT_ID": 64899, "ELEMENT_SET_NO": 999, "REV_AT_EPOCH": 2089, "BSTAR": 0.00012237756, "MEAN_MOTION_DOT": 7.21e-06, "MEAN_MOTION_DDOT": 0}, "tle": {"line1": "1 64899U 25156A   25349.16565860  .00000721  00000+0  12238-3 0  9993", "line2": "2 64899  98.0024  64.4722 0017274 137.3856 222.8695 14.72060751 20896"}}, "geometry": {"type": "Point", "coordinates": [-114.98271967636657, -1.5933161653228802]}}, {"type": "Feature", "properties": {"norad_id": 64900, "name": "CO3D 3", "group": "resource", "lat": 57.07762984863538, "lon": 54.63387519917597, "alt_km": 498.9071292373528, "timestamp": "2025-12-15T22:44:28.581521+00:00", "meta": {"OBJECT_NAME": "CO3D 3", "OBJECT_ID": "2025-156B", "EPOCH": "2025-12-13T16:46:35.865408", "MEAN_MOTION": 15.2020033, "ECCENTRICITY": 0.00013843, "INCLINATION": 97.4344, "RA_OF_ASC_NODE": 64.0523, "ARG_OF_PERICENTER": 93.9049, "MEAN_ANOMALY": 266.2345, "EPHEMERIS_TYPE": 0, "CLASSIFICATION_TYPE": "U", "NORAD_CAT_ID": 64900, "ELEMENT_SET_NO": 999, "REV_AT_EPOCH": 2135, "BSTAR": 0.00015817929, "MEAN_MOTION_DOT": 3.358e-05, "MEAN_MOTION_DDOT": 0}, "tle": {"line1": "1 64900U 25156B   25347.69902622  .00003358  00000+0  15818-3 0  9999", "line2": "2 64900  97.4344  64.0523 0001384  93.9049 266.2345 15.20200330 21357"}}, "geometry": {"type": "Point", "coordinates": [54.63387519917597, 57.07762984863538]}}]}